{
  "type": "FeatureCollection",
  "features": [
    {
      "type": "Feature",
      "properties": {
        "norad_id": 33860,
        "name": "IRIDIUM 33 DEB",
        "group": "iridium-33-debris",
        "lat": -35.8491221146247,
        "lon": 25.29650573754293,
        "alt_km": 671.7849839022656,
        "timestamp": "2025-12-11T05:00:26.693094+00:00",
        "meta_object_name": "IRIDIUM 33 DEB",
        "meta_object_id": "1997-051AD",
        "meta_epoch": "2025-12-10T21:46:25.478112",
        "meta_mean_motion": 14.67328289,
        "meta_eccentricity": 0.00077029,
        "meta_inclination": 86.3835,
        "meta_ra_of_asc_node": 28.049,
        "meta_arg_of_pericenter": 4.2981,
        "meta_mean_anomaly": 168.8384,
        "meta_ephemeris_type": 0,
        "meta_classification_type": "U",
        "meta_norad_cat_id": 33860,
        "meta_element_set_no": 999,
        "meta_rev_at_epoch": 88695,
        "meta_bstar": 0.0018172752,
        "meta_mean_motion_dot": 0.00010288,
        "meta_mean_motion_ddot": 0,
        "tle_line1": "1 33860U 97051AD  25344.90723933  .00010288  00000+0  18173-2 0  9996",
        "tle_line2": "2 33860  86.3835  28.0490 0007702   4.2981 168.8384 14.67328289886952"
      },
      "geometry": {
        "type": "Point",
        "coordinates": [
          25.29650573754293,
          -35.8491221146247
        ]
      }
    },
    {
      "type": "Feature",
      "properties": {
        "norad_id": 33862,
        "name": "IRIDIUM 33 DEB",
        "group": "iridium-33-debris",
        "lat": -12.784182902771512,
        "lon": 37.38885861150932,
        "alt_km": 665.3054393442308,
        "timestamp": "2025-12-11T05:00:26.693121+00:00",
        "meta_object_name": "IRIDIUM 33 DEB",
        "meta_object_id": "1997-051AF",
        "meta_epoch": "2025-12-10T21:40:26.402304",
        "meta_mean_motion": 14.69422734,
        "meta_eccentricity": 0.0053598,
        "meta_inclination": 86.409,
        "meta_ra_of_asc_node": 38.34,
        "meta_arg_of_pericenter": 75.3524,
        "meta_mean_anomaly": 97.2407,
        "meta_ephemeris_type": 0,
        "meta_classification_type": "U",
        "meta_norad_cat_id": 33862,
        "meta_element_set_no": 999,
        "meta_rev_at_epoch": 88796,
        "meta_bstar": 0.0020186905,
        "meta_mean_motion_dot": 0.00012244,
        "meta_mean_motion_ddot": 0,
        "tle_line1": "1 33862U 97051AF  25344.90308336  .00012244  00000+0  20187-2 0  9996",
        "tle_line2": "2 33862  86.4090  38.3400 0053598  75.3524  97.2407 14.69422734887964"
      },
      "geometry": {
        "type": "Point",
        "coordinates": [
          37.38885861150932,
          -12.784182902771512
        ]
      }
    },
    {
      "type": "Feature",
      "properties": {
        "norad_id": 33866,
        "name": "IRIDIUM 33 DEB",
        "group": "iridium-33-debris",
        "lat": -62.44611229089749,
        "lon": 86.55875303648722,
        "alt_km": 868.3751930521967,
        "timestamp": "2025-12-11T05:00:26.693133+00:00",
        "meta_object_name": "IRIDIUM 33 DEB",
        "meta_object_id": "1997-051AK",
        "meta_epoch": "2025-12-10T18:13:34.881600",
        "meta_mean_motion": 14.25264618,
        "meta_eccentricity": 0.01143267,
        "meta_inclination": 86.2998,
        "meta_ra_of_asc_node": 93.8733,
        "meta_arg_of_pericenter": 167.693,
        "meta_mean_anomaly": 345.2596,
        "meta_ephemeris_type": 0,
        "meta_classification_type": "U",
        "meta_norad_cat_id": 33866,
        "meta_element_set_no": 999,
        "meta_rev_at_epoch": 86782,
        "meta_bstar": 0.0011367253,
        "meta_mean_motion_dot": 2.881e-05,
        "meta_mean_motion_ddot": 0,
        "tle_line1": "1 33866U 97051AK  25344.75943150  .00002881  00000+0  11367-2 0  9998",
        "tle_line2": "2 33866  86.2998  93.8733 0114326 167.6930 345.2596 14.25264618867826"
      },
      "geometry": {
        "type": "Point",
        "coordinates": [
          86.55875303648722,
          -62.44611229089749
        ]
      }
    },
    {
      "type": "Feature",
      "properties": {
        "norad_id": 33867,
        "name": "IRIDIUM 33 DEB",
        "group": "iridium-33-debris",
        "lat": -84.49456992339462,
        "lon": -50.38279449987708,
        "alt_km": 390.4797394374409,
        "timestamp": "2025-12-11T05:00:26.693144+00:00",
        "meta_object_name": "IRIDIUM 33 DEB",
        "meta_object_id": "1997-051AL",
        "meta_epoch": "2025-12-10T10:56:50.694720",
        "meta_mean_motion": 15.63354376,
        "meta_eccentricity": 0.00131668,
        "meta_inclination": 86.364,
        "meta_ra_of_asc_node": 351.2878,
        "meta_arg_of_pericenter": 91.1844,
        "meta_mean_anomaly": 269.0932,
        "meta_ephemeris_type": 0,
        "meta_classification_type": "U",
        "meta_norad_cat_id": 33867,
        "meta_element_set_no": 999,
        "meta_rev_at_epoch": 89475,
        "meta_bstar": 0.0092111059,
        "meta_mean_motion_dot": 0.00931891,
        "meta_mean_motion_ddot": 0,
        "tle_line1": "1 33867U 97051AL  25344.45614230  .00931891  00000+0  92111-2 0  9998",
        "tle_line2": "2 33867  86.3640 351.2878 0013166  91.1844 269.0932 15.63354376894751"
      },
      "geometry": {
        "type": "Point",
        "coordinates": [
          -50.38279449987708,
          -84.49456992339462
        ]
      }
    },
    {
      "type": "Feature",
      "properties": {
        "norad_id": 33870,
        "name": "IRIDIUM 33 DEB",
        "group": "iridium-33-debris",
        "lat": -77.35886616455447,
        "lon": 42.49536478169265,
        "alt_km": 749.0686550022128,
        "timestamp": "2025-12-11T05:00:26.693155+00:00",
        "meta_object_name": "IRIDIUM 33 DEB",
        "meta_object_id": "1997-051AP",
        "meta_epoch": "2025-12-10T06:24:18.912384",
        "meta_mean_motion": 14.45830234,
        "meta_eccentricity": 0.0021205,
        "meta_inclination": 86.3744,
        "meta_ra_of_asc_node": 59.3205,
        "meta_arg_of_pericenter": 186.1349,
        "meta_mean_anomaly": 237.0541,
        "meta_ephemeris_type": 0,
        "meta_classification_type": "U",
        "meta_norad_cat_id": 33870,
        "meta_element_set_no": 999,
        "meta_rev_at_epoch": 88101,
        "meta_bstar": 0.0012181,
        "meta_mean_motion_dot": 4.353e-05,
        "meta_mean_motion_ddot": 0,
        "tle_line1": "1 33870U 97051AP  25344.26688556  .00004353  00000+0  12181-2 0  9996",
        "tle_line2": "2 33870  86.3744  59.3205 0021205 186.1349 237.0541 14.45830234881015"
      },
      "geometry": {
        "type": "Point",
        "coordinates": [
          42.49536478169265,
          -77.35886616455447
        ]
      }
    },
    {
      "type": "Feature",
      "properties": {
        "norad_id": 33881,
        "name": "IRIDIUM 33 DEB",
        "group": "iridium-33-debris",
        "lat": 86.34840073957979,
        "lon": -154.5832599046304,
        "alt_km": 695.9290606490131,
        "timestamp": "2025-12-11T05:00:26.693166+00:00",
        "meta_object_name": "IRIDIUM 33 DEB",
        "meta_object_id": "1997-051BA",
        "meta_epoch": "2025-12-10T19:23:39.783840",
        "meta_mean_motion": 14.56512734,
        "meta_eccentricity": 0.00614461,
        "meta_inclination": 86.3863,
        "meta_ra_of_asc_node": 107.5816,
        "meta_arg_of_pericenter": 180.8783,
        "meta_mean_anomaly": 331.4545,
        "meta_ephemeris_type": 0,
        "meta_classification_type": "U",
        "meta_norad_cat_id": 33881,
        "meta_element_set_no": 999,
        "meta_rev_at_epoch": 87472,
        "meta_bstar": 0.0031554403,
        "meta_mean_motion_dot": 0.00014437,
        "meta_mean_motion_ddot": 0,
        "tle_line1": "1 33881U 97051BA  25344.80809935  .00014437  00000+0  31554-2 0  9993",
        "tle_line2": "2 33881  86.3863 107.5816 0061446 180.8783 331.4545 14.56512734874724"
      },
      "geometry": {
        "type": "Point",
        "coordinates": [
          -154.5832599046304,
          86.34840073957979
        ]
      }
    },
    {
      "type": "Feature",
      "properties": {
        "norad_id": 33884,
        "name": "IRIDIUM 33 DEB",
        "group": "iridium-33-debris",
        "lat": -76.5069395004723,
        "lon": -4.833698222400119,
        "alt_km": 640.2697495899856,
        "timestamp": "2025-12-11T05:00:26.693177+00:00",
        "meta_object_name": "IRIDIUM 33 DEB",
        "meta_object_id": "1997-051BD",
        "meta_epoch": "2025-12-10T20:22:59.024064",
        "meta_mean_motion": 14.77367318,
        "meta_eccentricity": 0.00099038,
        "meta_inclination": 86.3696,
        "meta_ra_of_asc_node": 10.6714,
        "meta_arg_of_pericenter": 331.0132,
        "meta_mean_anomaly": 202.1515,
        "meta_ephemeris_type": 0,
        "meta_classification_type": "U",
        "meta_norad_cat_id": 33884,
        "meta_element_set_no": 999,
        "meta_rev_at_epoch": 88819,
        "meta_bstar": 0.0022524314,
        "meta_mean_motion_dot": 0.00016065,
        "meta_mean_motion_ddot": 0,
        "tle_line1": "1 33884U 97051BD  25344.84929426  .00016065  00000+0  22524-2 0  9994",
        "tle_line2": "2 33884  86.3696  10.6714 0009903 331.0132 202.1515 14.77367318888196"
      },
      "geometry": {
        "type": "Point",
        "coordinates": [
          -4.833698222400119,
          -76.5069395004723
        ]
      }
    }
  ]
}